{
  "norad_id": 57152,
  "name": "STARLINK-6164",
  "history": [
    {
      "epoch": "2026-03-28T22:00:01.999584",
      "apogee_km": 486.6043433957648,
      "perigee_km": 484.67081809636966,
      "latitude_deg": -7.765283078606372,
      "longitude_deg": -16.797778240172192,
      "semi_major_axis_km": 6863.774580746067,
      "eccentricity": 0.00014085,
      "inclination_deg": 43.0006,
      "raan_deg": 154.5466,
      "arg_perigee_deg": 282.5698,
      "mean_anomaly_deg": 172.7149,
      "mean_motion_rev_day": 15.26715954
    },
    {
      "epoch": "2026-03-29T05:26:11.227776",
      "apogee_km": 486.11758326500876,
      "perigee_km": 485.15116425558244,
      "latitude_deg": 39.14951707908573,
      "longitude_deg": 12.945808639982715,
      "semi_major_axis_km": 6863.771373760295,
      "eccentricity": 7.04e-05,
      "inclination_deg": 43.0008,
      "raan_deg": 152.7989,
      "arg_perigee_deg": 293.6516,
      "mean_anomaly_deg": 66.4262,
      "mean_motion_rev_day": 15.26717024
    }
  ]
}